ONEWEB-0415             
1 51624U 22012C   25122.89356821  .00000613  00000+0  17191-2 0  9999
2 51624  87.8789 118.0755 0001895  97.7601 262.3741 13.10373469155550
ONEWEB-0416             
1 51625U 22012D   25122.90518598  .00000471  00000+0  13140-2 0  9995
2 51625  87.8792 118.0869 0002059  90.4426 269.6937 13.10371535155592
ONEWEB-0422             
1 51626U 22012E   25122.79240217 -.00000017  00000+0 -77801-4 0  9997
2 51626  87.9033  87.5686 0001487  66.3163 293.8125 13.17648759159766
ONEWEB-0423             
1 51627U 22012F   25122.93753408  .00000022  00000+0  24380-4 0  9993
2 51627  87.9036  87.5455 0002036  80.6923 279.4439 13.17650005159673
ONEWEB-0425             
1 51628U 22012G   25122.68606045  .00000067  00000+0  15572-3 0  9991
2 51628  87.8788 118.1032 0002332  84.7935 275.3458 13.10371314155562
ONEWEB-0428             
1 51629U 22012H   25122.51344031  .00000717  00000+0  20168-2 0  9996
2 51629  87.8793 118.1579 0001781  88.7336 271.3995 13.10373708155506
ONEWEB-0431             
1 51630U 22012J   25122.71247256 -.00000629  00000+0 -18390-2 0  9999
2 51630  87.8789 118.0940 0001485 100.1408 259.9887 13.10374624155582
ONEWEB-0434             
1 51631U 22012K   25122.53669522  .00001444  00000+0  41006-2 0  9998
2 51631  87.8791 118.1677 0002711  80.7947 279.3487 13.10355646156832
